NORAD_CAT_ID,OBJECT_NAME,OBJECT_TYPE,EPOCH,MEAN_MOTION,ECCENTRICITY,INCLINATION,RA_OF_ASC_NODE,ARG_OF_PERICENTER,MEAN_ANOMALY,BSTAR,MEAN_MOTION_DOT,MEAN_MOTION_DDOT,TLE_LINE0,TLE_LINE1,TLE_LINE2,SEMIMAJOR_AXIS,PERIOD,APOGEE,PERIGEE,DECAYED
52836.0,STARLINK-4043,PAYLOAD,2022-11-30 02:53:29,15.08827177,0.0001907,53.2185,1.2488,43.6908,316.4235,-0.00017815,-3.121e-05,0.0,0 STARLINK-4043,1 52836U 22062G   22334.12048348 -.00003121  00000-0 -17815-3 0  9994,2 52836  53.2185   1.2488 0001907  43.6908 316.4235 15.08827177 25298,6917.92,95.438,541.104,538.465,0.0
52836.0,STARLINK-4043,PAYLOAD,2022-11-30 10:50:25,15.08830544,0.0001827,53.2188,359.7615,45.7591,314.3551,-7.378e-05,-1.462e-05,0.0,0 STARLINK-4043,1 52836U 22062G   22334.45168418 -.00001462  00000-0 -73780-4 0  9991,2 52836  53.2188 359.7615 0001827  45.7591 314.3551 15.08830544 25342,6917.909000000002,95.438,541.038,538.51,0.0
52836.0,STARLINK-4043,PAYLOAD,2022-12-01 04:19:40,15.08842969,0.0002173,53.2183,356.49300000000005,37.4512,322.6631,0.00041837,6.377e-05,0.0,0 STARLINK-4043,1 52836U 22062G   22335.18032552  .00006377  00000-0  41837-3 0  9996,2 52836  53.2183 356.4930 0002173  37.4512 322.6631 15.08842969 25454,6917.871,95.437,541.24,538.2330000000002,0.0
52836.0,STARLINK-4043,PAYLOAD,2022-12-01 10:41:12,15.08850094,0.0002134,53.2182,355.3033,38.76300000000001,321.3515,0.00066816,0.00010365,0.0,0 STARLINK-4043,1 52836U 22062G   22335.44528460  .00010365  00000-0  66816-3 0  9999,2 52836  53.2182 355.3033 0002134  38.7630 321.3515 15.08850094 25496,6917.85,95.437,541.191,538.238,0.0
52836.0,STARLINK-4043,PAYLOAD,2022-12-01 18:38:08,15.08850518,0.000217,53.2177,353.8157,38.6077,321.507,0.00054707,8.432e-05,0.0,0 STARLINK-4043,1 52836U 22062G   22335.77648391  .00008432  00000-0  54707-3 0  9999,2 52836  53.2177 353.8157 0002170  38.6077 321.5070 15.08850518 25549,6917.848000000001,95.437,541.214,538.212,0.0
52836.0,STARLINK-4043,PAYLOAD,2022-12-02 10:31:59,15.08835015,0.0002101,53.2178,350.8426,41.2344,318.8806,-2.9152e-05,-7.52e-06,0.0,0 STARLINK-4043,1 52836U 22062G   22336.43888810 -.00000752  00000-0 -29152-4 0  9991,2 52836  53.2178 350.8426 0002101  41.2344 318.8806 15.08835015 25649,6917.896,95.438,541.214,538.307,0.0
52836.0,STARLINK-4043,PAYLOAD,2022-12-02 20:04:18,15.08842204,0.0002096,53.2177,349.0584,41.707,318.4082,0.00024238,3.572e-05,0.0,0 STARLINK-4043,1 52836U 22062G   22336.83632769  .00003572  00000-0  24238-3 0  9995,2 52836  53.2177 349.0584 0002096  41.7070 318.4082 15.08842204 25704,6917.874,95.437,541.189,538.289,0.0
52836.0,STARLINK-4043,PAYLOAD,2022-12-03 11:58:10,15.08842582,0.0002249,53.2181,346.0855,34.5476,325.5662,0.00041127,6.264e-05,0.0,0 STARLINK-4043,1 52836U 22062G   22337.49873010  .00006264  00000-0  41127-3 0  9991,2 52836  53.2181 346.0855 0002249  34.5476 325.5662 15.08842582 25800,6917.871999999999,95.437,541.293,538.182,0.0
52836.0,STARLINK-4043,PAYLOAD,2022-12-04 00:41:15,15.08839861,0.0002284,53.2182,343.7067,34.5108,325.6032,0.00024163,3.559e-05,0.0,0 STARLINK-4043,1 52836U 22062G   22338.02865184  .00003559  00000-0  24163-3 0  9999,2 52836  53.2182 343.7067 0002284  34.5108 325.6032 15.08839861 25887,6917.880999999999,95.438,541.326,538.1659999999998,0.0
52836.0,STARLINK-4043,PAYLOAD,2022-12-04 11:48:57,15.08849812,0.0002302,53.2178,341.6244,41.082,319.0345,0.00038512,5.848e-05,0.0,0 STARLINK-4043,1 52836U 22062G   22338.49232824  .00005848  00000-0  38512-3 0  9995,2 52836  53.2178 341.6244 0002302  41.0820 319.0345 15.08849812 25950,6917.85,95.437,541.308,538.123,0.0
52836.0,STARLINK-4043,PAYLOAD,2022-12-05 11:39:44,15.08844558,0.0002301,53.2183,337.1642,38.6747,321.4409,6.1425e-05,6.900000000000003e-06,0.0,0 STARLINK-4043,1 52836U 22062G   22339.48592632  .00000690  00000-0  61425-4 0  9991,2 52836  53.2183 337.1642 0002301  38.6747 321.4409 15.08844558 26105,6917.866,95.437,541.323,538.14,0.0
52836.0,STARLINK-4043,PAYLOAD,2022-12-06 09:55:07,15.08838576,0.0002619,53.2182,333.0006,38.677,321.4409,-8.5735e-05,-1.653e-05,0.0,0 STARLINK-4043,1 52836U 22062G   22340.41328555 -.00001653  00000-0 -85735-4 0  9999,2 52836  53.2182 333.0006 0002619  38.6770 321.4409 15.08838576 26249,6917.885,95.438,541.562,537.938,0.0
52836.0,STARLINK-4043,PAYLOAD,2022-12-06 16:16:40,15.0883762,0.0002559,53.2182,331.8111,36.8636,323.2532,-7.7142e-05,-1.516e-05,0.0,0 STARLINK-4043,1 52836U 22062G   22340.67824602 -.00001516  00000-0 -77142-4 0  9992,2 52836  53.2182 331.8111 0002559  36.8636 323.2532 15.08837620 26286,6917.888000000001,95.438,541.523,537.982,0.0
52836.0,STARLINK-4043,PAYLOAD,2022-12-07 16:07:27,15.08838505,0.0002257,53.2184,327.3513,35.4194,324.6948,5.2998e-05,5.55e-06,0.0,0 STARLINK-4043,1 52836U 22062G   22341.67184660  .00000555  00000-0  52998-4 0  9998,2 52836  53.2184 327.3513 0002257  35.4194 324.6948 15.08838505 26439,6917.885,95.438,541.311,538.189,0.0
52836.0,STARLINK-4043,PAYLOAD,2022-12-08 01:39:45,15.08851065,0.0002108,53.2181,325.5669,26.5139,333.596,0.00013701,1.894e-05,0.0,0 STARLINK-4043,1 52836U 22062G   22342.06927939  .00001894  00000-0  13701-3 0  9991,2 52836  53.2181 325.5669 0002108  26.5139 333.5960 15.08851065 26498,6917.847,95.437,541.17,538.253,0.0
52836.0,STARLINK-4043,PAYLOAD,2022-12-08 08:01:18,15.08848052,0.0002006,53.2184,324.3775,26.9153,333.1943,0.00011188,1.493e-05,0.0,0 STARLINK-4043,1 52836U 22062G   22342.33424016  .00001493  00000-0  11188-3 0  9991,2 52836  53.2184 324.3775 0002006  26.9153 333.1943 15.08848052 26537,6917.856,95.437,541.1080000000002,538.3330000000002,0.0
52836.0,STARLINK-4043,PAYLOAD,2022-12-08 15:58:14,15.08839457,0.0001997,53.2174,322.8907,36.809,323.3039,0.00012899,1.765e-05,0.0,0 STARLINK-4043,1 52836U 22062G   22342.66544495  .00001765  00000-0  12899-3 0  9993,2 52836  53.2174 322.8907 0001997  36.8090 323.3039 15.08839457 26585,6917.882,95.438,541.129,538.366,0.0
52836.0,STARLINK-4043,PAYLOAD,2022-12-09 11:02:52,15.08838592,0.0002126,53.2169,319.3237,30.4782,329.6334,4.676600000000001e-05,4.56e-06,0.0,0 STARLINK-4043,1 52836U 22062G   22343.46032517  .00000456  00000-0  46766-4 0  9996,2 52836  53.2169 319.3237 0002126  30.4782 329.6334 15.08838592 26709,6917.885,95.438,541.22,538.279,0.0
52836.0,STARLINK-4043,PAYLOAD,2022-12-10 04:32:06,15.08841239,0.0001982,53.2187,316.0522,31.1822,328.9287,7.568100000000001e-05,9.17e-06,0.0,0 STARLINK-4043,1 52836U 22062G   22344.18896479  .00000917  00000-0  75681-4 0  9991,2 52836  53.2187 316.0522 0001982  31.1822 328.9287 15.08841239 26815,6917.877,95.437,541.113,538.37,0.0
52836.0,STARLINK-4043,PAYLOAD,2022-12-10 07:42:52,15.08842041,0.0002024,53.2183,315.4571,32.7211,327.3906,8.263e-05,1.027e-05,0.0,0 STARLINK-4043,1 52836U 22062G   22344.32144481  .00001027  00000-0  82630-4 0  9991,2 52836  53.2183 315.4571 0002024  32.7211 327.3906 15.08842041 26830,6917.874,95.437,541.139,538.339,0.0
52836.0,STARLINK-4043,PAYLOAD,2022-12-11 04:22:54,15.08831735,0.0002087,53.2181,311.591,34.1897,325.9229,-5.3374e-05,-1.137e-05,0.0,0 STARLINK-4043,1 52836U 22062G   22345.18257290 -.00001137  00000-0 -53374-4 0  9996,2 52836  53.2181 311.5910 0002087  34.1897 325.9229 15.08831735 26961,6917.906,95.438,541.214,538.327,0.0
52836.0,STARLINK-4043,PAYLOAD,2022-12-11 09:09:03,15.0884303,0.0001544,53.219,310.6995,38.0191,322.091,-9.8816e-05,-1.86e-05,0.0,0 STARLINK-4043,1 52836U 22062G   22345.38128935 -.00001860  00000-0 -98816-4 0  9994,2 52836  53.2190 310.6995 0001544  38.0191 322.0910 15.08843030 26990,6917.871,95.437,540.804,538.668,0.0
52836.0,STARLINK-4043,PAYLOAD,2022-12-11 21:52:08,15.08841995,0.000205,53.219,308.3206,33.7483,326.3639,0.00010287,1.349e-05,0.0,0 STARLINK-4043,1 52836U 22062G   22345.91120832  .00001349  00000-0  10287-3 0  9996,2 52836  53.2190 308.3206 0002050  33.7483 326.3639 15.08841995 27071,6917.874,95.437,541.1569999999998,538.321,0.0
52836.0,STARLINK-4043,PAYLOAD,2022-12-12 07:24:27,15.08843136,0.0002063,53.2184,306.5367,33.3151,326.7971,0.00019766,2.859e-05,0.0,0 STARLINK-4043,1 52836U 22062G   22346.30865143  .00002859  00000-0  19766-3 0  9999,2 52836  53.2184 306.5367 0002063  33.3151 326.7971 15.08843136 27133,6917.871,95.437,541.163,538.309,0.0
52836.0,STARLINK-4043,PAYLOAD,2022-12-13 04:04:28,15.08832131,0.0002086,53.2183,302.6708,33.4525,326.6598,0.00012933,1.77e-05,0.0,0 STARLINK-4043,1 52836U 22062G   22347.16977842  .00001770  00000-0  12933-3 0  9994,2 52836  53.2183 302.6708 0002086  33.4525 326.6598 15.08832131 27260,6917.904,95.438,541.2130000000002,538.326,0.0
52836.0,STARLINK-4043,PAYLOAD,2022-12-13 07:15:15,15.08832422,0.0002109,53.2182,302.0761,32.4463,327.6658,0.00010357,1.36e-05,0.0,0 STARLINK-4043,1 52836U 22062G   22347.30225814  .00001360  00000-0  10357-3 0  9998,2 52836  53.2182 302.0761 0002109  32.4463 327.6658 15.08832422 27281,6917.904,95.438,541.2280000000002,538.31,0.0
52836.0,STARLINK-4043,PAYLOAD,2022-12-13 13:36:47,15.08833401,0.0002123,53.2184,300.8867,33.4899,326.6227,4.5762e-05,4.4e-06,0.0,0 STARLINK-4043,1 52836U 22062G   22347.56721824  .00000440  00000-0  45762-4 0  9995,2 52836  53.2184 300.8867 0002123  33.4899 326.6227 15.08833401 27320,6917.901,95.438,541.234,538.297,0.0
52836.0,STARLINK-4043,PAYLOAD,2022-12-14 03:55:16,15.08820194,0.0002086,53.2189,298.2109,32.6453,327.4668,-7.488e-05,-1.479e-05,0.0,0 STARLINK-4043,1 52836U 22062G   22348.16339098 -.00001479  00000-0 -74880-4 0  9998,2 52836  53.2189 298.2109 0002086  32.6453 327.4668 15.08820194 27412,6917.941,95.439,541.249,538.363,0.0
52836.0,STARLINK-4043,PAYLOAD,2022-12-14 13:27:35,15.08829258,0.0002102,53.2197,296.4266,34.8154,325.2976,-2.2836e-05,-6.52e-06,0.0,0 STARLINK-4043,1 52836U 22062G   22348.56082762 -.00000652  00000-0 -22836-4 0  9991,2 52836  53.2197 296.4266 0002102  34.8154 325.2976 15.08829258 27470,6917.913000000001,95.438,541.232,538.3240000000002,0.0
